COSMOS 2251 DEB         
1 34116U 93036KM  26094.12320905  .00005102  00000+0  12197-2 0  9998
2 34116  74.0421 330.6432 0010087  20.9092 106.1335 14.53829786901196
COSMOS 2251 DEB         
1 34117U 93036KN  26094.11424445  .00002733  00000+0  84984-3 0  9993
2 34117  74.0379 136.1232 0056719 188.7245 171.2931 14.40548127897418
COSMOS 2251 DEB         
1 34118U 93036KP  26094.25574634  .00038787  00000+0  30455-2 0  9996
2 34118  73.9530  20.6789 0060078 184.8746 328.4203 14.99289067908595
COSMOS 2251 DEB         
1 34120U 93036KR  26094.23896380  .00000542  00000+0  34055-3 0  9991
2 34120  73.9943  21.3198 0183426 184.9221 333.3656 13.98806857875534
COSMOS 2251 DEB         
1 34121U 93036KS  26093.92866451  .00003880  00000+0  24023-2 0  9994
2 34121  73.9902 264.8347 0238605  86.1982  29.3593 13.92406878866868
COSMOS 2251 DEB         
1 34122U 93036KT  26093.90802994  .00015236  00000+0  26015-2 0  9996
2 34122  74.0340 262.5375 0081797 131.1923 351.0482 14.66727620903280
COSMOS 2251 DEB         
1 34127U 93036KY  26094.24691770  .00005651  00000+0  19495-2 0  9991
2 34127  74.1787 200.3597 0112457   7.0943  12.4161 14.32552369883826
COSMOS 2251 DEB         
1 34128U 93036KZ  26094.20291348  .00077964  00000+0  47228-2 0  9996
2 34128  73.9965  65.7796 0027014 169.4203 204.9008 15.09885099908596
COSMOS 2251 DEB         
1 34129U 93036LA  26094.12822647  .00013217  00000+0  18164-2 0  9998
2 34129  74.0308 119.2078 0032932 180.3606 179.7552 14.77996293629576
COSMOS 2251 DEB         
1 34136U 93036LH  26094.30558874  .00005901  00000+0  71826-3 0  9990
2 34136  74.0207 180.4691 0086923 273.7844 141.8843 14.80969610916763
COSMOS 2251 DEB         
1 34139U 93036LL  26093.63017572  .00014586  00000+0  29449-2 0  9995
2 34139  74.0318  40.4566 0038531  89.6786  86.9851 14.60958754897824
COSMOS 2251 DEB         
1 34141U 93036LN  26094.28235801  .00009799  00000+0  24475-2 0  9991
2 34141  74.0100 177.1554 0050981 238.1500 178.2844 14.50853965893256
COSMOS 2251 DEB         
1 34270U 93036LQ  26094.04381390  .00003754  00000+0  67832-3 0  9993
2 34270  74.0096  90.0740 0050621 216.5167 143.2547 14.65960068907418
COSMOS 2251 DEB         
1 34271U 93036LR  26094.16688064  .00023029  00000+0  34678-2 0  9993
2 34271  74.0211 340.2615 0014212  15.0868 148.4893 14.74281981898897
COSMOS 2251 DEB         
1 34273U 93036LT  26093.38862990  .00008094  00000+0  16039-2 0  9996
2 34273  74.0357 233.7513 0014282 323.5355  67.6173 14.62341105902530
COSMOS 2251 DEB         
1 34274U 93036LU  26093.78928727  .00010463  00000+0  18936-2 0  9993
2 34274  74.0044 212.4207 0022712 328.5565 159.7941 14.66264196903178
