[{"OBJECT_NAME":"COSMOS 2251 DEB","OBJECT_ID":"1993-036KM","EPOCH":"2026-04-04T02:57:25.261920","MEAN_MOTION":14.53829786,"ECCENTRICITY":0.00100873,"INCLINATION":74.0421,"RA_OF_ASC_NODE":330.6432,"ARG_OF_PERICENTER":20.9092,"MEAN_ANOMALY":106.1335,"EPHEMERIS_TYPE":0,"CLASSIFICATION_TYPE":"U","NORAD_CAT_ID":34116,"ELEMENT_SET_NO":999,"REV_AT_EPOCH":90119,"BSTAR":0.0012197078,"MEAN_MOTION_DOT":5.102e-5,"MEAN_MOTION_DDOT":0},{"OBJECT_NAME":"COSMOS 2251 DEB","OBJECT_ID":"1993-036KN","EPOCH":"2026-04-04T02:44:30.720480","MEAN_MOTION":14.40548127,"ECCENTRICITY":0.00567195,"INCLINATION":74.0379,"RA_OF_ASC_NODE":136.1232,"ARG_OF_PERICENTER":188.7245,"MEAN_ANOMALY":171.2931,"EPHEMERIS_TYPE":0,"CLASSIFICATION_TYPE":"U","NORAD_CAT_ID":34117,"ELEMENT_SET_NO":999,"REV_AT_EPOCH":89741,"BSTAR":0.00084984233,"MEAN_MOTION_DOT":2.733e-5,"MEAN_MOTION_DDOT":0},{"OBJECT_NAME":"COSMOS 2251 DEB","OBJECT_ID":"1993-036KP","EPOCH":"2026-04-04T06:08:16.483776","MEAN_MOTION":14.99289067,"ECCENTRICITY":0.00600787,"INCLINATION":73.953,"RA_OF_ASC_NODE":20.6789,"ARG_OF_PERICENTER":184.8746,"MEAN_ANOMALY":328.4203,"EPHEMERIS_TYPE":0,"CLASSIFICATION_TYPE":"U","NORAD_CAT_ID":34118,"ELEMENT_SET_NO":999,"REV_AT_EPOCH":90859,"BSTAR":0.0030455274,"MEAN_MOTION_DOT":0.00038787,"MEAN_MOTION_DDOT":0},{"OBJECT_NAME":"COSMOS 2251 DEB","OBJECT_ID":"1993-036KR","EPOCH":"2026-04-04T05:44:06.472320","MEAN_MOTION":13.98806857,"ECCENTRICITY":0.01834269,"INCLINATION":73.9943,"RA_OF_ASC_NODE":21.3198,"ARG_OF_PERICENTER":184.9221,"MEAN_ANOMALY":333.3656,"EPHEMERIS_TYPE":0,"CLASSIFICATION_TYPE":"U","NORAD_CAT_ID":34120,"ELEMENT_SET_NO":999,"REV_AT_EPOCH":87553,"BSTAR":0.0003405505,"MEAN_MOTION_DOT":5.42e-6,"MEAN_MOTION_DDOT":0},{"OBJECT_NAME":"COSMOS 2251 DEB","OBJECT_ID":"1993-036KS","EPOCH":"2026-04-03T22:17:16.613664","MEAN_MOTION":13.92406878,"ECCENTRICITY":0.02386056,"INCLINATION":73.9902,"RA_OF_ASC_NODE":264.8347,"ARG_OF_PERICENTER":86.1982,"MEAN_ANOMALY":29.3593,"EPHEMERIS_TYPE":0,"CLASSIFICATION_TYPE":"U","NORAD_CAT_ID":34121,"ELEMENT_SET_NO":999,"REV_AT_EPOCH":86686,"BSTAR":0.0024023095,"MEAN_MOTION_DOT":3.88e-5,"MEAN_MOTION_DDOT":0},{"OBJECT_NAME":"COSMOS 2251 DEB","OBJECT_ID":"1993-036KT","EPOCH":"2026-04-03T21:47:33.786816","MEAN_MOTION":14.6672762,"ECCENTRICITY":0.00817976,"INCLINATION":74.034,"RA_OF_ASC_NODE":262.5375,"ARG_OF_PERICENTER":131.1923,"MEAN_ANOMALY":351.0482,"EPHEMERIS_TYPE":0,"CLASSIFICATION_TYPE":"U","NORAD_CAT_ID":34122,"ELEMENT_SET_NO":999,"REV_AT_EPOCH":90328,"BSTAR":0.0026015277,"MEAN_MOTION_DOT":0.00015236,"MEAN_MOTION_DDOT":0},{"OBJECT_NAME":"COSMOS 2251 DEB","OBJECT_ID":"1993-036KY","EPOCH":"2026-04-04T05:55:33.689280","MEAN_MOTION":14.32552369,"ECCENTRICITY":0.01124576,"INCLINATION":74.1787,"RA_OF_ASC_NODE":200.3597,"ARG_OF_PERICENTER":7.0943,"MEAN_ANOMALY":12.4161,"EPHEMERIS_TYPE":0,"CLASSIFICATION_TYPE":"U","NORAD_CAT_ID":34127,"ELEMENT_SET_NO":999,"REV_AT_EPOCH":88382,"BSTAR":0.0019494733,"MEAN_MOTION_DOT":5.651e-5,"MEAN_MOTION_DDOT":0},{"OBJECT_NAME":"COSMOS 2251 DEB","OBJECT_ID":"1993-036KZ","EPOCH":"2026-04-04T04:52:11.724672","MEAN_MOTION":15.09885099,"ECCENTRICITY":0.00270144,"INCLINATION":73.9965,"RA_OF_ASC_NODE":65.7796,"ARG_OF_PERICENTER":169.4203,"MEAN_ANOMALY":204.9008,"EPHEMERIS_TYPE":0,"CLASSIFICATION_TYPE":"U","NORAD_CAT_ID":34128,"ELEMENT_SET_NO":999,"REV_AT_EPOCH":90859,"BSTAR":0.004722782,"MEAN_MOTION_DOT":0.00077964,"MEAN_MOTION_DDOT":0},{"OBJECT_NAME":"COSMOS 2251 DEB","OBJECT_ID":"1993-036LA","EPOCH":"2026-04-04T03:04:38.767008","MEAN_MOTION":14.77996293,"ECCENTRICITY":0.00329326,"INCLINATION":74.0308,"RA_OF_ASC_NODE":119.2078,"ARG_OF_PERICENTER":180.3606,"MEAN_ANOMALY":179.7552,"EPHEMERIS_TYPE":0,"CLASSIFICATION_TYPE":"U","NORAD_CAT_ID":34129,"ELEMENT_SET_NO":999,"REV_AT_EPOCH":62957,"BSTAR":0.0018163854,"MEAN_MOTION_DOT":0.00013217,"MEAN_MOTION_DDOT":0},{"OBJECT_NAME":"COSMOS 2251 DEB","OBJECT_ID":"1993-036LH","EPOCH":"2026-04-04T07:20:02.867136","MEAN_MOTION":14.8096961,"ECCENTRICITY":0.00869238,"INCLINATION":74.0207,"RA_OF_ASC_NODE":180.4691,"ARG_OF_PERICENTER":273.7844,"MEAN_ANOMALY":141.8843,"EPHEMERIS_TYPE":0,"CLASSIFICATION_TYPE":"U","NORAD_CAT_ID":34136,"ELEMENT_SET_NO":999,"REV_AT_EPOCH":91676,"BSTAR":0.00071825657,"MEAN_MOTION_DOT":5.901e-5,"MEAN_MOTION_DDOT":0},{"OBJECT_NAME":"COSMOS 2251 DEB","OBJECT_ID":"1993-036LL","EPOCH":"2026-04-03T15:07:27.182208","MEAN_MOTION":14.60958754,"ECCENTRICITY":0.0038531,"INCLINATION":74.0318,"RA_OF_ASC_NODE":40.4566,"ARG_OF_PERICENTER":89.6786,"MEAN_ANOMALY":86.9851,"EPHEMERIS_TYPE":0,"CLASSIFICATION_TYPE":"U","NORAD_CAT_ID":34139,"ELEMENT_SET_NO":999,"REV_AT_EPOCH":89782,"BSTAR":0.0029449,"MEAN_MOTION_DOT":0.00014586,"MEAN_MOTION_DDOT":0},{"OBJECT_NAME":"COSMOS 2251 DEB","OBJECT_ID":"1993-036LN","EPOCH":"2026-04-04T06:46:35.732064","MEAN_MOTION":14.50853965,"ECCENTRICITY":0.00509815,"INCLINATION":74.01,"RA_OF_ASC_NODE":177.1554,"ARG_OF_PERICENTER":238.15,"MEAN_ANOMALY":178.2844,"EPHEMERIS_TYPE":0,"CLASSIFICATION_TYPE":"U","NORAD_CAT_ID":34141,"ELEMENT_SET_NO":999,"REV_AT_EPOCH":89325,"BSTAR":0.0024474929,"MEAN_MOTION_DOT":9.799e-5,"MEAN_MOTION_DDOT":0},{"OBJECT_NAME":"COSMOS 2251 DEB","OBJECT_ID":"1993-036LQ","EPOCH":"2026-04-04T01:03:05.520960","MEAN_MOTION":14.65960068,"ECCENTRICITY":0.00506214,"INCLINATION":74.0096,"RA_OF_ASC_NODE":90.074,"ARG_OF_PERICENTER":216.5167,"MEAN_ANOMALY":143.2547,"EPHEMERIS_TYPE":0,"CLASSIFICATION_TYPE":"U","NORAD_CAT_ID":34270,"ELEMENT_SET_NO":999,"REV_AT_EPOCH":90741,"BSTAR":0.00067831765,"MEAN_MOTION_DOT":3.754e-5,"MEAN_MOTION_DDOT":0},{"OBJECT_NAME":"COSMOS 2251 DEB","OBJECT_ID":"1993-036LR","EPOCH":"2026-04-04T04:00:18.487296","MEAN_MOTION":14.74281981,"ECCENTRICITY":0.00142126,"INCLINATION":74.0211,"RA_OF_ASC_NODE":340.2615,"ARG_OF_PERICENTER":15.0868,"MEAN_ANOMALY":148.4893,"EPHEMERIS_TYPE":0,"CLASSIFICATION_TYPE":"U","NORAD_CAT_ID":34271,"ELEMENT_SET_NO":999,"REV_AT_EPOCH":89889,"BSTAR":0.00346781,"MEAN_MOTION_DOT":0.00023029,"MEAN_MOTION_DDOT":0},{"OBJECT_NAME":"COSMOS 2251 DEB","OBJECT_ID":"1993-036LT","EPOCH":"2026-04-03T09:19:37.623360","MEAN_MOTION":14.62341105,"ECCENTRICITY":0.0014282,"INCLINATION":74.0357,"RA_OF_ASC_NODE":233.7513,"ARG_OF_PERICENTER":323.5355,"MEAN_ANOMALY":67.6173,"EPHEMERIS_TYPE":0,"CLASSIFICATION_TYPE":"U","NORAD_CAT_ID":34273,"ELEMENT_SET_NO":999,"REV_AT_EPOCH":90253,"BSTAR":0.0016038631,"MEAN_MOTION_DOT":8.094e-5,"MEAN_MOTION_DDOT":0},{"OBJECT_NAME":"COSMOS 2251 DEB","OBJECT_ID":"1993-036LU","EPOCH":"2026-04-03T18:56:34.420128","MEAN_MOTION":14.66264196,"ECCENTRICITY":0.0022712,"INCLINATION":74.0044,"RA_OF_ASC_NODE":212.4207,"ARG_OF_PERICENTER":328.5565,"MEAN_ANOMALY":159.7941,"EPHEMERIS_TYPE":0,"CLASSIFICATION_TYPE":"U","NORAD_CAT_ID":34274,"ELEMENT_SET_NO":999,"REV_AT_EPOCH":90317,"BSTAR":0.0018936,"MEAN_MOTION_DOT":0.00010463,"MEAN_MOTION_DDOT":0}]
